"placekey","safegraph_place_id","parent_placekey","parent_safegraph_place_id","location_name","safegraph_brand_ids","brands","top_category","sub_category","naics_code","latitude","longitude","street_address","city","region","postal_code","iso_country_code","phone_number","open_hours","category_tags"
zzw-224@5vg-7f8-6tv,sg:ab6b3b5fcf414747ac9dd3e507574b2e,,,Starbucks,SG_BRAND_f116acfe9147494063e58da666d1d57e,Starbucks,Restaurants and Other Eating Places,Snack and Nonalcoholic Beverage Bars,722515,37.796967,-122.398156,99 Jackson St,San Francisco,CA,94111,US,+14154214464,"{ ""Mon"": [[""5:00"", ""18:30""]], ""Tue"": [[""5:00"", ""18:30""]], ""Wed"": [[""5:00"", ""18:30""]], ""Thu"": [[""5:00"", ""19:00""]], ""Fri"": [[""5:00"", ""18:30""]], ""Sat"": [[""5:30"", ""18:30""]], ""Sun"": [[""5:00"", ""18:30""]] }","Snacks,Counter Service,Dessert,Tea House,Coffee Shop,Bakery"
222-222@5vg-836-66k,sg:760f6ed253ba4f2190015c77d2aec72f,225-226@5vg-836-66k,sg:b7ca2f3541af437ebd63007dc2c827b0,Starbucks,SG_BRAND_f116acfe9147494063e58da666d1d57e,Starbucks,Restaurants and Other Eating Places,Snack and Nonalcoholic Beverage Bars,722515,37.727867,-122.476713,233 Winston Dr,San Francisco,CA,94132,US,,,"Snacks,Counter Service,Dessert,Tea House,Coffee Shop,Bakery"
229-222@5vg-7h2-brk,sg:8f23157e69524308beb0733884265167,,,Starbucks,SG_BRAND_f116acfe9147494063e58da666d1d57e,Starbucks,Restaurants and Other Eating Places,Snack and Nonalcoholic Beverage Bars,722515,37.770217,-122.403411,689 Townsend St,San Francisco,CA,94103,US,+14152557561,"{ ""Mon"": [[""4:00"", ""18:30""]], ""Tue"": [[""4:00"", ""18:30""]], ""Wed"": [[""4:00"", ""18:30""]], ""Thu"": [[""4:00"", ""18:30""]], ""Fri"": [[""4:00"", ""18:30""]], ""Sat"": [[""4:30"", ""17:30""]], ""Sun"": [[""5:30"", ""16:00""]] }","Snacks,Counter Service,Dessert,Tea House,Coffee Shop,Bakery"
23h-222@5vg-7gx-ckf,sg:96f0c62450444db998700a94a63df27c,,,Boba Guys,SG_BRAND_3cb8a9183076df2c,Boba Guys,Restaurants and Other Eating Places,Snack and Nonalcoholic Beverage Bars,722515,37.759967,-122.421133,3491 19th St,San Francisco,CA,94110,US,,"{ ""Mon"": [[""12:00"", ""21:00""]], ""Tue"": [[""12:00"", ""21:00""]], ""Wed"": [[""12:00"", ""21:00""]], ""Thu"": [[""12:00"", ""21:00""]], ""Fri"": [[""12:00"", ""22:00""]], ""Sat"": [[""12:00"", ""22:00""]], ""Sun"": [[""12:00"", ""18:00""]] }","Bubble Tea Shop,Counter Service,Dessert,Snacks"
229-223@5vg-7gr-xh5,sg:e3852b8175034944940ad488171fc32d,zzy-222@5vg-7gr-xbk,sg:802855f14cbf4c1ea9776a4ffc85039f,Peet's Coffee and Tea,SG_BRAND_8421bf6b31aaf51cc6dfa83a155940a3,Peet's Coffee and Tea,Restaurants and Other Eating Places,Snack and Nonalcoholic Beverage Bars,722515,37.786524,-122.450454,3419 California St,San Francisco,CA,94118,US,+14152218506,,"Snacks,Counter Service,Dessert,Tea House,Coffee Shop"
zzw-224@5vg-7f8-4y9,sg:f6f8d8d1eb0c4702a057e6eec7fe8e95,,,Starbucks,SG_BRAND_f116acfe9147494063e58da666d1d57e,Starbucks,Restaurants and Other Eating Places,Snack and Nonalcoholic Beverage Bars,722515,37.802883,-122.40294,1255 Battery St Ste 600,San Francisco,CA,94111,US,+14154020379,"{ ""Mon"": [[""5:00"", ""18:30""]], ""Tue"": [[""5:00"", ""18:30""]], ""Wed"": [[""5:00"", ""18:30""]], ""Thu"": [[""5:00"", ""18:30""]], ""Fri"": [[""5:00"", ""18:30""]], ""Sat"": [[""6:30"", ""16:30""]], ""Sun"": [] }","Snacks,Counter Service,Dessert,Tea House,Coffee Shop,Bakery"
zzy-222@5vg-7mw-dy9,sg:07ef4f1c9f4a498b88d9af8304f77c1a,zzw-222@5vg-7ms-8sq,sg:9144eb7b57c34380b3ebd16636b454a4,Starbucks,SG_BRAND_f116acfe9147494063e58da666d1d57e,Starbucks,Restaurants and Other Eating Places,Snack and Nonalcoholic Beverage Bars,722515,37.799209,-122.449507,1 Letterman Drive Building C Letterman Digital Art,San Francisco,CA,94129,US,+14154411740,,"Snacks,Counter Service,Dessert,Tea House,Coffee Shop,Bakery"
23h-222@5vg-7gs-3wk,sg:4b797a7e418d4848b556811940cb90f8,,,Peet's Coffee and Tea,SG_BRAND_8421bf6b31aaf51cc6dfa83a155940a3,Peet's Coffee and Tea,Restaurants and Other Eating Places,Snack and Nonalcoholic Beverage Bars,722515,37.789683,-122.434235,2197 Fillmore St,San Francisco,CA,94115,US,+14155639930,,"Snacks,Counter Service,Dessert,Tea House,Coffee Shop"
237-222@5vg-7gw-nbk,sg:2e74267fd75348a29d6a38bd97b584a8,,,Starbucks,SG_BRAND_f116acfe9147494063e58da666d1d57e,Starbucks,Restaurants and Other Eating Places,Snack and Nonalcoholic Beverage Bars,722515,37.797553,-122.430435,1899 Union St,San Francisco,CA,94123,US,+14159214049,,"Snacks,Counter Service,Dessert,Tea House,Coffee Shop,Bakery"
zzy-224@5vg-7gt-gkz,sg:d8ed675394724c24850630e5b3f60408,,,Starbucks,SG_BRAND_f116acfe9147494063e58da666d1d57e,Starbucks,Restaurants and Other Eating Places,Snack and Nonalcoholic Beverage Bars,722515,37.791952,-122.39835,398 Market St,San Francisco,CA,94111,US,+14157885856,"{ ""Mon"": [[""4:30"", ""18:00""]], ""Tue"": [[""4:30"", ""18:00""]], ""Wed"": [[""4:30"", ""18:00""]], ""Thu"": [[""4:30"", ""18:00""]], ""Fri"": [[""6:00"", ""18:00""]], ""Sat"": [[""8:00"", ""16:00""]], ""Sun"": [[""4:30"", ""18:00""]] }","Snacks,Counter Service,Dessert,Tea House,Coffee Shop,Bakery"
22m-222@5vg-7gv-p5f,sg:003b080d5551447e944e2e2a27964964,,,Peet's Coffee and Tea,SG_BRAND_8421bf6b31aaf51cc6dfa83a155940a3,Peet's Coffee and Tea,Restaurants and Other Eating Places,Snack and Nonalcoholic Beverage Bars,722515,37.796536,-122.422066,2139C Polk St,San Francisco,CA,94109,US,+14154741871,"{ ""Mon"": [[""5:00"", ""19:00""]], ""Tue"": [[""5:00"", ""19:00""]], ""Wed"": [[""5:00"", ""19:00""]], ""Thu"": [[""5:00"", ""19:00""]], ""Fri"": [[""5:00"", ""19:00""]], ""Sat"": [[""5:30"", ""19:00""]], ""Sun"": [[""6:00"", ""19:00""]] }","Snacks,Counter Service,Dessert,Tea House,Coffee Shop"
225-239@5vg-836-66k,sg:bc6d91f5166b4eaaa6c060a8327f403d,225-226@5vg-836-66k,sg:b7ca2f3541af437ebd63007dc2c827b0,Peet's Coffee and Tea,SG_BRAND_8421bf6b31aaf51cc6dfa83a155940a3,Peet's Coffee and Tea,Restaurants and Other Eating Places,Snack and Nonalcoholic Beverage Bars,722515,37.72774,-122.476595,3251 20th Ave Ste P182,San Francisco,CA,94132,US,+14152138380,,"Snacks,Counter Service,Dessert,Tea House,Coffee Shop"
zzw-226@5vg-7gs-4n5,sg:671eb8d24b4b4735869fd1c17ae4e4a3,zzw-222@5vg-7gs-4n5,sg:1588b488a13246708b04823fd92f228f,Starbucks,SG_BRAND_f116acfe9147494063e58da666d1d57e,Starbucks,Restaurants and Other Eating Places,Snack and Nonalcoholic Beverage Bars,722515,37.78273,-122.431511,1335 Webster St,San Francisco,CA,94115,US,,,"Snacks,Counter Service,Dessert,Tea House,Coffee Shop,Bakery"
zzy-22y@5vg-7gt-qzz,sg:d1ef523adf804c61b7873460acb686e2,zzw-229@5vg-7gt-qzz,sg:67c9205c0aab456ea5bd1b83f56f765a,Peet's Coffee and Tea,SG_BRAND_8421bf6b31aaf51cc6dfa83a155940a3,Peet's Coffee and Tea,Restaurants and Other Eating Places,Snack and Nonalcoholic Beverage Bars,722515,37.795572,-122.393499,1 Ferry Building Shop 43,San Francisco,CA,94111,US,+14155933831,"{ ""Mon"": [[""6:00"", ""20:00""]], ""Tue"": [[""6:00"", ""20:00""]], ""Wed"": [[""6:00"", ""20:00""]], ""Thu"": [[""6:00"", ""20:00""]], ""Fri"": [[""6:00"", ""20:00""]], ""Sat"": [[""6:30"", ""20:00""]], ""Sun"": [[""6:30"", ""20:00""]] }","Snacks,Counter Service,Dessert,Tea House,Coffee Shop"
22f-222@5vg-7gw-pqf,sg:98efa38a081f4b7fa1775bc07cf04683,,,Starbucks,SG_BRAND_f116acfe9147494063e58da666d1d57e,Starbucks,Restaurants and Other Eating Places,Snack and Nonalcoholic Beverage Bars,722515,37.790217,-122.433859,2222 Fillmore St,San Francisco,CA,94115,US,+14156733171,"{ ""Mon"": [[""4:30"", ""20:00""]], ""Tue"": [[""4:30"", ""20:00""]], ""Wed"": [[""4:30"", ""20:00""]], ""Thu"": [[""4:30"", ""20:00""]], ""Fri"": [[""5:00"", ""20:00""]], ""Sat"": [[""5:00"", ""20:00""]], ""Sun"": [[""4:30"", ""20:00""]] }","Snacks,Counter Service,Dessert,Tea House,Coffee Shop,Bakery"
zzy-222@5vg-7gt-zzz,sg:31dd0bfc917246849559207db0dd13ef,,,Starbucks,SG_BRAND_f116acfe9147494063e58da666d1d57e,Starbucks,Restaurants and Other Eating Places,Snack and Nonalcoholic Beverage Bars,722515,37.777081,-122.393752,280 King Street Mission Bay,San Francisco,CA,94107,US,+14153440351,"{ ""Mon"": [[""4:30"", ""20:00""]], ""Tue"": [[""4:30"", ""20:00""]], ""Wed"": [[""4:30"", ""20:00""]], ""Thu"": [[""4:30"", ""20:00""]], ""Fri"": [[""4:30"", ""20:00""]], ""Sat"": [[""6:00"", ""19:30""]], ""Sun"": [[""5:30"", ""19:00""]] }","Snacks,Counter Service,Dessert,Tea House,Coffee Shop,Bakery"
23b-222@5vg-7gt-ckf,sg:60fdf4b07bcb4809843ae1c417844c92,,,Starbucks,SG_BRAND_f116acfe9147494063e58da666d1d57e,Starbucks,Restaurants and Other Eating Places,Snack and Nonalcoholic Beverage Bars,722515,37.79291,-122.404347,580 California St Ste 150,San Francisco,CA,94104,US,+14157922732,"{ ""Mon"": [[""4:30"", ""19:00""]], ""Tue"": [[""4:30"", ""19:00""]], ""Wed"": [[""4:30"", ""19:00""]], ""Thu"": [[""4:30"", ""19:00""]], ""Fri"": [[""4:30"", ""19:00""]], ""Sat"": [[""6:00"", ""18:00""]], ""Sun"": [[""6:00"", ""18:00""]] }","Snacks,Counter Service,Dessert,Tea House,Coffee Shop,Bakery"
22w-223@5vg-7ms-gkz,sg:6fcdbd959dd34b0fbe3bfeb699b46629,,,Peet's Coffee and Tea,SG_BRAND_8421bf6b31aaf51cc6dfa83a155940a3,Peet's Coffee and Tea,Restaurants and Other Eating Places,Snack and Nonalcoholic Beverage Bars,722515,37.780267,-122.475254,5201 Geary Blvd,San Francisco,CA,94118,US,+14155922200,,"Snacks,Counter Service,Dessert,Tea House,Coffee Shop"
228-222@5vg-7gx-qzz,sg:87e68a84d67b4d95a53985107be46f6f,,,Starbucks,SG_BRAND_f116acfe9147494063e58da666d1d57e,Starbucks,Restaurants and Other Eating Places,Snack and Nonalcoholic Beverage Bars,722515,37.762904,-122.410442,2727 Mariposa St,San Francisco,CA,94110,US,+14155522649,,"Snacks,Counter Service,Dessert,Tea House,Coffee Shop,Bakery"
223-225@5vg-82x-2c5,sg:8c7ad94a58fe425b98e2c4a2ee948309,223-222@5vg-82x-2c5,sg:f58755db29cc48f989812250f4a47653,Starbucks,SG_BRAND_f116acfe9147494063e58da666d1d57e,Starbucks,Restaurants and Other Eating Places,Snack and Nonalcoholic Beverage Bars,722515,37.754118,-122.488815,2350 Noriega St,San Francisco,CA,94122,US,,"{ ""Mon"": [[""6:30"", ""18:30""]], ""Tue"": [[""6:30"", ""18:00""]], ""Wed"": [[""6:30"", ""18:00""]], ""Thu"": [[""6:30"", ""18:30""]], ""Fri"": [[""6:30"", ""18:30""]], ""Sat"": [[""6:30"", ""18:30""]], ""Sun"": [[""6:30"", ""18:30""]] }","Snacks,Counter Service,Dessert,Tea House,Coffee Shop,Bakery"
22z-222@5vg-7gt-brk,sg:009e7d393799461996344925e9398334,,,Peet's Coffee and Tea,SG_BRAND_8421bf6b31aaf51cc6dfa83a155940a3,Peet's Coffee and Tea,Restaurants and Other Eating Places,Snack and Nonalcoholic Beverage Bars,722515,37.790836,-122.402523,217 Montgomery St,San Francisco,CA,94104,US,+14154218420,,"Snacks,Counter Service,Dessert,Tea House,Coffee Shop"
226-228@5vg-7gq-d9z,sg:0262baa9611c48feb46dac386b04bbb5,,,Peet's Coffee and Tea,SG_BRAND_8421bf6b31aaf51cc6dfa83a155940a3,Peet's Coffee and Tea,Restaurants and Other Eating Places,Snack and Nonalcoholic Beverage Bars,722515,37.781786,-122.420894,601 Van Ness Ave,San Francisco,CA,94102,US,+14155932661,"{ ""Mon"": [[""5:30"", ""19:00""]], ""Tue"": [[""5:30"", ""19:00""]], ""Wed"": [[""5:30"", ""19:00""]], ""Thu"": [[""5:30"", ""19:00""]], ""Fri"": [[""5:30"", ""19:00""]], ""Sat"": [[""6:00"", ""19:00""]], ""Sun"": [[""6:00"", ""19:00""]] }","Snacks,Counter Service,Dessert,Tea House,Coffee Shop"
zzw-237@5vg-833-45f,sg:a46cf8efde054c6295c32bdb5e61e836,zzw-222@5vg-833-6hq,sg:3ac728a61ce244b3ac1c6300fafc24e9,Starbucks,SG_BRAND_f116acfe9147494063e58da666d1d57e,Starbucks,Restaurants and Other Eating Places,Snack and Nonalcoholic Beverage Bars,722515,37.764162,-122.456415,350 Parnassus Street Parnassus Heights Medical Cen,San Francisco,CA,94117,US,+14156656406,,"Snacks,Counter Service,Dessert,Tea House,Coffee Shop,Bakery"
227-224@5vg-7gv-5mk,sg:980734d8fc2f44b7af97ac38c9b58be0,,,Peet's Coffee and Tea,SG_BRAND_8421bf6b31aaf51cc6dfa83a155940a3,Peet's Coffee and Tea,Restaurants and Other Eating Places,Snack and Nonalcoholic Beverage Bars,722515,37.786055,-122.405046,773 Market St,San Francisco,CA,94103,US,+14155302559,,"Snacks,Counter Service,Dessert,Tea House,Coffee Shop"
22q-226@5vg-7gt-gff,sg:bf2f5168cf7844eca4587440a1935c49,,,Peet's Coffee and Tea,SG_BRAND_8421bf6b31aaf51cc6dfa83a155940a3,Peet's Coffee and Tea,Restaurants and Other Eating Places,Snack and Nonalcoholic Beverage Bars,722515,37.791491,-122.399446,22 Battery St,San Francisco,CA,94111,US,+14159814550,"{ ""Mon"": [[""5:00"", ""18:00""]], ""Tue"": [[""5:00"", ""18:00""]], ""Wed"": [[""5:00"", ""18:00""]], ""Thu"": [[""5:00"", ""18:00""]], ""Fri"": [[""5:00"", ""18:00""]], ""Sat"": [], ""Sun"": [] }","Snacks,Counter Service,Dessert,Tea House,Coffee Shop"
22s-222@5vg-82n-pvz,sg:fd2fe0ac9c6944cf9c67c5da0087ec4e,,,Starbucks,SG_BRAND_f116acfe9147494063e58da666d1d57e,Starbucks,Restaurants and Other Eating Places,Snack and Nonalcoholic Beverage Bars,722515,37.74464,-122.452668,675 Portola Dr,San Francisco,CA,94127,US,+14156829477,"{ ""Mon"": [[""4:30"", ""19:00""]], ""Tue"": [[""4:30"", ""19:00""]], ""Wed"": [[""4:30"", ""19:00""]], ""Thu"": [[""4:30"", ""19:30""]], ""Fri"": [[""5:00"", ""19:30""]], ""Sat"": [[""5:00"", ""19:00""]], ""Sun"": [[""4:30"", ""19:00""]] }","Snacks,Counter Service,Dessert,Tea House,Coffee Shop,Bakery"
22k-222@5vg-7gt-dvz,sg:0f6433f06b1f4cb7b13c7872e67100a2,,,Peet's Coffee and Tea,SG_BRAND_8421bf6b31aaf51cc6dfa83a155940a3,Peet's Coffee and Tea,Restaurants and Other Eating Places,Snack and Nonalcoholic Beverage Bars,722515,37.794752,-122.401225,450 Sansome St Ste 1,San Francisco,CA,94111,US,+14153215280,"{ ""Mon"": [[""5:30"", ""18:30""]], ""Tue"": [[""5:30"", ""18:30""]], ""Wed"": [[""5:30"", ""18:30""]], ""Thu"": [[""5:30"", ""18:30""]], ""Fri"": [[""5:30"", ""18:30""]], ""Sat"": [], ""Sun"": [] }","Snacks,Counter Service,Dessert,Tea House,Coffee Shop"
227-224@5vg-7gt-f2k,sg:38b34a98da6c485a8279065d9795133f,,,Starbucks,SG_BRAND_f116acfe9147494063e58da666d1d57e,Starbucks,Restaurants and Other Eating Places,Snack and Nonalcoholic Beverage Bars,722515,37.789505,-122.402017,44 Montgomery St,San Francisco,CA,94104,US,+14153974394,"{ ""Mon"": [[""4:30"", ""17:30""]], ""Tue"": [[""4:30"", ""17:30""]], ""Wed"": [[""4:30"", ""17:30""]], ""Thu"": [[""4:30"", ""17:30""]], ""Fri"": [[""6:00"", ""16:00""]], ""Sat"": [], ""Sun"": [[""4:30"", ""17:30""]] }","Snacks,Counter Service,Dessert,Tea House,Coffee Shop,Bakery"
222-222@5vg-7gr-py9,sg:b60fd731d0fc4146b70b0487bb1cb026,,,Starbucks,SG_BRAND_f116acfe9147494063e58da666d1d57e,Starbucks,Restaurants and Other Eating Places,Snack and Nonalcoholic Beverage Bars,722515,37.785953,-122.439774,1750 Divisadero St,San Francisco,CA,94115,US,+14153467193,"{ ""Mon"": [[""4:30"", ""18:30""]], ""Tue"": [[""4:30"", ""18:30""]], ""Wed"": [[""4:30"", ""18:30""]], ""Thu"": [[""4:30"", ""19:00""]], ""Fri"": [[""5:30"", ""18:30""]], ""Sat"": [[""5:00"", ""18:00""]], ""Sun"": [[""4:30"", ""18:30""]] }","Snacks,Counter Service,Dessert,Tea House,Coffee Shop,Bakery"
zzw-228@5vg-7gt-zzz,sg:ef383de66c0e4233a93d2c8c3926182d,,,Starbucks,SG_BRAND_f116acfe9147494063e58da666d1d57e,Starbucks,Restaurants and Other Eating Places,Snack and Nonalcoholic Beverage Bars,722515,37.777086,-122.393706,298 King St,San Francisco,CA,94107,US,,"{ ""Mon"": [[""5:30"", ""19:00""]], ""Tue"": [[""5:30"", ""19:00""]], ""Wed"": [[""5:30"", ""19:00""]], ""Thu"": [[""5:30"", ""19:00""]], ""Fri"": [[""5:30"", ""19:00""]], ""Sat"": [[""5:30"", ""19:00""]], ""Sun"": [[""5:30"", ""19:00""]] }","Snacks,Counter Service,Dessert,Tea House,Coffee Shop,Bakery"
zzw-22s@5vg-7gt-brk,sg:cfd48c898c7c408d999cf9b0396bae56,,,Peet's Coffee and Tea,SG_BRAND_8421bf6b31aaf51cc6dfa83a155940a3,Peet's Coffee and Tea,Restaurants and Other Eating Places,Snack and Nonalcoholic Beverage Bars,722515,37.790852,-122.402538,155 Montgomery St # 161,San Francisco,CA,94104,US,+14155768810,"{ ""Mon"": [[""5:00"", ""18:30""]], ""Tue"": [[""5:00"", ""18:30""]], ""Wed"": [[""5:00"", ""18:30""]], ""Thu"": [[""5:00"", ""18:30""]], ""Fri"": [[""5:00"", ""18:30""]], ""Sat"": [], ""Sun"": [] }","Snacks,Counter Service,Dessert,Tea House,Coffee Shop"
zzy-222@5vg-7gv-p5f,sg:1a24b55a6e854aa895ae18c6039d86e2,,,Starbucks,SG_BRAND_f116acfe9147494063e58da666d1d57e,Starbucks,Restaurants and Other Eating Places,Snack and Nonalcoholic Beverage Bars,722515,37.796751,-122.422173,2165 Polk St,San Francisco,CA,94109,US,+14159211351,"{ ""Mon"": [[""5:00"", ""19:30""]], ""Tue"": [[""5:00"", ""19:30""]], ""Wed"": [[""5:00"", ""19:30""]], ""Thu"": [[""5:00"", ""19:30""]], ""Fri"": [[""5:00"", ""19:30""]], ""Sat"": [[""5:30"", ""19:30""]], ""Sun"": [[""5:00"", ""19:30""]] }","Snacks,Counter Service,Dessert,Tea House,Coffee Shop,Bakery"
223-225@5vg-7gv-47q,sg:a300438049be48a59742dbc1c60cac44,,,Starbucks,SG_BRAND_f116acfe9147494063e58da666d1d57e,Starbucks,Restaurants and Other Eating Places,Snack and Nonalcoholic Beverage Bars,722515,37.78701,-122.407345,170 Ofarrell St,San Francisco,CA,94102,US,+14152964328,,"Snacks,Counter Service,Dessert,Tea House,Coffee Shop,Bakery"
22q-223@5vg-7gz-8gk,sg:e474ee243e534035bb67d969b98a440d,,,Peet's Coffee and Tea,SG_BRAND_8421bf6b31aaf51cc6dfa83a155940a3,Peet's Coffee and Tea,Restaurants and Other Eating Places,Snack and Nonalcoholic Beverage Bars,722515,37.773435,-122.438876,310 Broderick St,San Francisco,CA,94117,US,+14155938830,"{ ""Mon"": [[""5:00"", ""20:00""]], ""Tue"": [[""5:00"", ""20:00""]], ""Wed"": [[""5:00"", ""20:00""]], ""Thu"": [[""5:00"", ""20:00""]], ""Fri"": [[""5:00"", ""20:00""]], ""Sat"": [[""5:30"", ""20:00""]], ""Sun"": [[""5:30"", ""20:00""]] }","Snacks,Counter Service,Dessert,Tea House,Coffee Shop"
zzw-222@5vg-7fb-3kf,sg:6d0731fa8c8e45f9b6b7b123e4ab96bf,,,Starbucks,SG_BRAND_f116acfe9147494063e58da666d1d57e,Starbucks,Restaurants and Other Eating Places,Snack and Nonalcoholic Beverage Bars,722515,37.808396,-122.412872,49 Jefferson St # P,San Francisco,CA,94133,US,+14157880173,,"Snacks,Counter Service,Dessert,Tea House,Coffee Shop,Bakery"
zzy-222@5vg-7gq-7qz,sg:cf2a35aeb1b242b6b73fa2f258f4ff14,223-222@5vg-7gq-7qz,sg:5a2081d6e58e44b081835a245b9317a9,Starbucks,SG_BRAND_f116acfe9147494063e58da666d1d57e,Starbucks,Restaurants and Other Eating Places,Snack and Nonalcoholic Beverage Bars,722515,37.777066,-122.417322,1390 Market Street 107 Fox Plaza,San Francisco,CA,94102,US,+14158638332,"{ ""Mon"": [[""5:00"", ""19:00""]], ""Tue"": [[""5:00"", ""19:00""]], ""Wed"": [[""5:00"", ""19:00""]], ""Thu"": [[""5:00"", ""19:00""]], ""Fri"": [[""5:30"", ""17:30""]], ""Sat"": [[""5:30"", ""17:30""]], ""Sun"": [[""5:00"", ""19:00""]] }","Snacks,Counter Service,Dessert,Tea House,Coffee Shop,Bakery"
226-226@5vg-7gw-d5f,sg:16723bd3df1842ddb875966813159755,,,Peet's Coffee and Tea,SG_BRAND_8421bf6b31aaf51cc6dfa83a155940a3,Peet's Coffee and Tea,Restaurants and Other Eating Places,Snack and Nonalcoholic Beverage Bars,722515,37.788664,-122.421671,1400 Van Ness Ave,San Francisco,CA,94109,US,+14152307822,"{ ""Mon"": [[""5:00"", ""19:00""]], ""Tue"": [[""5:00"", ""19:00""]], ""Wed"": [[""5:00"", ""19:00""]], ""Thu"": [[""5:00"", ""19:00""]], ""Fri"": [[""5:00"", ""20:00""]], ""Sat"": [[""5:30"", ""20:00""]], ""Sun"": [[""5:30"", ""19:00""]] }","Snacks,Counter Service,Dessert,Tea House,Coffee Shop"
223-223@5vg-7gv-3h5,sg:23a6083dd0d74422a531825cab528fa9,223-224@5vg-7gv-3h5,sg:d7b09e5ac2cc4b1da20b31ad4b320c1a,Starbucks,SG_BRAND_f116acfe9147494063e58da666d1d57e,Starbucks,Restaurants and Other Eating Places,Snack and Nonalcoholic Beverage Bars,722515,37.784511,-122.403956,789 Mission St,San Francisco,CA,94103,US,,"{ ""Mon"": [[""7:00"", ""22:00""]], ""Tue"": [[""7:00"", ""22:00""]], ""Wed"": [[""7:00"", ""22:00""]], ""Thu"": [[""7:00"", ""22:00""]], ""Fri"": [[""8:00"", ""22:00""]], ""Sat"": [[""8:00"", ""21:00""]], ""Sun"": [[""7:00"", ""22:00""]] }","Snacks,Counter Service,Dessert,Tea House,Coffee Shop,Bakery"
22j-222@5vg-7gs-djv,sg:6a63d6c8240445aba0205f5cc26d3316,,,Starbucks,SG_BRAND_f116acfe9147494063e58da666d1d57e,Starbucks,Restaurants and Other Eating Places,Snack and Nonalcoholic Beverage Bars,722515,37.775731,-122.446236,1799 Fulton St,San Francisco,CA,94117,US,+14154748930,"{ ""Mon"": [[""5:00"", ""19:30""]], ""Tue"": [[""5:00"", ""19:30""]], ""Wed"": [[""5:00"", ""19:30""]], ""Thu"": [[""5:00"", ""20:00""]], ""Fri"": [[""5:00"", ""20:30""]], ""Sat"": [[""5:00"", ""19:30""]], ""Sun"": [[""5:00"", ""19:30""]] }","Snacks,Counter Service,Dessert,Tea House,Coffee Shop,Bakery"
22y-222@5vg-838-ndv,sg:87864180f86b4a92a49235df91e09348,,,Starbucks,SG_BRAND_f116acfe9147494063e58da666d1d57e,Starbucks,Restaurants and Other Eating Places,Snack and Nonalcoholic Beverage Bars,722515,37.739708,-122.467383,100 West Portal Ave,San Francisco,CA,94127,US,+14156648370,,"Snacks,Counter Service,Dessert,Tea House,Coffee Shop,Bakery"
zzw-222@5vg-82j-n5z,sg:18c0530097c24dd89b69781695914281,228-222@5vg-82j-jn5,sg:799f2aaa0889405c9c7bb44a3a03adbb,Starbucks,SG_BRAND_f116acfe9147494063e58da666d1d57e,Starbucks,Restaurants and Other Eating Places,Snack and Nonalcoholic Beverage Bars,722515,37.725146,-122.461317,1830 Ocean Ave,San Francisco,CA,94112,US,,"{ ""Mon"": [[""7:00"", ""21:00""]], ""Tue"": [[""7:00"", ""21:00""]], ""Wed"": [[""7:00"", ""21:00""]], ""Thu"": [[""7:00"", ""21:00""]], ""Fri"": [[""8:00"", ""21:00""]], ""Sat"": [[""8:00"", ""20:00""]], ""Sun"": [[""7:00"", ""21:00""]] }","Snacks,Counter Service,Dessert,Tea House,Coffee Shop,Bakery"
223-222@5vg-7gq-7nq,sg:a64ce61ed4343913a6369254c7055bcc,,,Starbucks,SG_BRAND_f116acfe9147494063e58da666d1d57e,Starbucks,Restaurants and Other Eating Places,Snack and Nonalcoholic Beverage Bars,722515,37.77723,-122.419324,150 Van Ness Ave,San Francisco,CA,94102,US,+14155587715,,"Snacks,Counter Service,Dessert,Tea House,Coffee Shop,Bakery"
229-222@5vg-7gt-cqz,sg:32866abd36204e838093bc27256e11e4,zzw-225@5vg-7gt-cqz,sg:21122771cddb48e7a942be9ff5e609ed,Peet's Coffee and Tea,SG_BRAND_8421bf6b31aaf51cc6dfa83a155940a3,Peet's Coffee and Tea,Restaurants and Other Eating Places,Snack and Nonalcoholic Beverage Bars,722515,37.794685,-122.398879,2 Embarcadero Ctr Ste R2113,San Francisco,CA,94111,US,+14158691744,"{ ""Mon"": [[""5:30"", ""18:30""]], ""Tue"": [[""5:30"", ""18:30""]], ""Wed"": [[""5:30"", ""18:30""]], ""Thu"": [[""5:30"", ""18:30""]], ""Fri"": [[""5:30"", ""18:30""]], ""Sat"": [], ""Sun"": [] }","Snacks,Counter Service,Dessert,Tea House,Coffee Shop"
zzw-223@5vg-7h3-4qf,sg:c3fffeedc8d14a24b45d24c652948a99,,,Starbucks,SG_BRAND_f116acfe9147494063e58da666d1d57e,Starbucks,Restaurants and Other Eating Places,Snack and Nonalcoholic Beverage Bars,722515,37.765877,-122.403438,350 Rhode Island St,San Francisco,CA,94103,US,+14158646383,"{ ""Mon"": [[""3:30"", ""19:00""]], ""Tue"": [[""3:30"", ""19:00""]], ""Wed"": [[""3:30"", ""19:00""]], ""Thu"": [[""3:30"", ""20:00""]], ""Fri"": [[""4:00"", ""19:00""]], ""Sat"": [[""4:00"", ""19:00""]], ""Sun"": [[""3:30"", ""19:00""]] }","Snacks,Counter Service,Dessert,Tea House,Coffee Shop,Bakery"
zzw-227@5vg-7gt-swk,sg:58068d11f41c487fa97290c229374009,,,Peet's Coffee and Tea,SG_BRAND_8421bf6b31aaf51cc6dfa83a155940a3,Peet's Coffee and Tea,Restaurants and Other Eating Places,Snack and Nonalcoholic Beverage Bars,722515,37.791841,-122.392897,121 Spear St,San Francisco,CA,94105,US,+16282203250,"{ ""Mon"": [[""5:30"", ""18:30""]], ""Tue"": [[""5:30"", ""18:30""]], ""Wed"": [[""5:30"", ""18:30""]], ""Thu"": [[""5:30"", ""18:30""]], ""Fri"": [[""5:30"", ""18:30""]], ""Sat"": [[""7:00"", ""15:00""]], ""Sun"": [[""8:00"", ""13:00""]] }","Snacks,Counter Service,Dessert,Tea House,Coffee Shop"
zzw-22f@5vg-7gt-d7q,sg:4269d6fa7d544885b1ff01fbf08ad3ba,,,Peet's Coffee and Tea,SG_BRAND_8421bf6b31aaf51cc6dfa83a155940a3,Peet's Coffee and Tea,Restaurants and Other Eating Places,Snack and Nonalcoholic Beverage Bars,722515,37.793359,-122.397014,1 California St,San Francisco,CA,94111,US,+14155938960,"{ ""Mon"": [[""5:00"", ""19:00""]], ""Tue"": [[""5:00"", ""19:00""]], ""Wed"": [[""5:00"", ""19:00""]], ""Thu"": [[""5:00"", ""19:00""]], ""Fri"": [[""5:00"", ""19:00""]], ""Sat"": [[""8:00"", ""15:00""]], ""Sun"": [] }","Snacks,Counter Service,Dessert,Tea House,Coffee Shop"
zzw-22d@5vg-7gv-5fz,sg:c670dca6bb5c41ad80df65e292d3013b,zzz-222@5vg-7gt-fcq,sg:4e718527635b4a7cb885bcb95077326b,Starbucks,SG_BRAND_f116acfe9147494063e58da666d1d57e,Starbucks,Restaurants and Other Eating Places,Snack and Nonalcoholic Beverage Bars,722515,37.787389,-122.403159,7 Third Street Third & Market,San Francisco,CA,94103,US,+14159799530,"{ ""Mon"": [[""5:00"", ""20:30""]], ""Tue"": [[""5:00"", ""20:30""]], ""Wed"": [[""5:00"", ""20:30""]], ""Thu"": [[""5:00"", ""21:00""]], ""Fri"": [[""6:00"", ""21:00""]], ""Sat"": [[""6:00"", ""20:00""]], ""Sun"": [[""5:00"", ""20:30""]] }","Snacks,Counter Service,Dessert,Tea House,Coffee Shop,Bakery"
zzw-224@5vg-7gs-4qf,sg:1966999e7d72417d9e9d08689700c7b2,,,Boba Guys,SG_BRAND_3cb8a9183076df2c,Boba Guys,Restaurants and Other Eating Places,Snack and Nonalcoholic Beverage Bars,722515,37.783665,-122.432502,1522 Fillmore St,San Francisco,CA,94115,US,,"{ ""Mon"": [[""11:00"", ""21:00""]], ""Tue"": [[""11:00"", ""21:00""]], ""Wed"": [[""11:00"", ""21:00""]], ""Thu"": [[""11:00"", ""21:00""]], ""Fri"": [[""12:00"", ""23:00""]], ""Sat"": [[""12:00"", ""23:00""]], ""Sun"": [[""12:00"", ""18:00""]] }","Bubble Tea Shop,Counter Service,Dessert,Snacks"
zzw-223@5vg-82p-4y9,sg:329f020890204b8ab8319f58c3d1291e,zzw-226@5vg-82p-4y9,sg:866e38737889461abe1e6212c91148e8,Starbucks,SG_BRAND_f116acfe9147494063e58da666d1d57e,Starbucks,Restaurants and Other Eating Places,Snack and Nonalcoholic Beverage Bars,722515,37.743594,-122.438943,5290 Diamond Heights Blvd,San Francisco,CA,94131,US,,"{ ""Mon"": [[""5:30"", ""19:00""]], ""Tue"": [[""5:30"", ""19:00""]], ""Wed"": [[""5:30"", ""19:00""]], ""Thu"": [[""5:30"", ""19:00""]], ""Fri"": [[""5:30"", ""19:00""]], ""Sat"": [[""5:30"", ""19:00""]], ""Sun"": [[""5:30"", ""19:00""]] }","Snacks,Counter Service,Dessert,Tea House,Coffee Shop,Bakery"
235-222@5vg-7gt-ffz,sg:e1fb81b256f3402eaa56ad454e591a00,,,Starbucks,SG_BRAND_f116acfe9147494063e58da666d1d57e,Starbucks,Restaurants and Other Eating Places,Snack and Nonalcoholic Beverage Bars,722515,37.788474,-122.403314,66 Kearny St,San Francisco,CA,94108,US,+14154211840,,"Snacks,Counter Service,Dessert,Tea House,Coffee Shop,Bakery"
222-224@5vg-7h2-6c5,sg:b4c50dab64d64af99b472ed236441f3f,222-222@5vg-7h2-6hq,sg:8bf0ea0a586142eba5df38e76ca4f996,Starbucks,SG_BRAND_f116acfe9147494063e58da666d1d57e,Starbucks,Restaurants and Other Eating Places,Snack and Nonalcoholic Beverage Bars,722515,37.767104,-122.393809,1700 Owens St,San Francisco,CA,94158,US,+14152527423,"{ ""Mon"": [[""4:00"", ""18:30""]], ""Tue"": [[""4:00"", ""17:30""]], ""Wed"": [[""4:00"", ""17:30""]], ""Thu"": [[""4:00"", ""17:30""]], ""Fri"": [[""4:00"", ""17:30""]], ""Sat"": [], ""Sun"": [] }","Snacks,Counter Service,Dessert,Tea House,Coffee Shop,Bakery"
223-223@5vg-838-py9,sg:8763d9de3b6447ee83d836395bfb8d28,,,Peet's Coffee and Tea,SG_BRAND_8421bf6b31aaf51cc6dfa83a155940a3,Peet's Coffee and Tea,Restaurants and Other Eating Places,Snack and Nonalcoholic Beverage Bars,722515,37.740389,-122.466699,54 West Portal Ave,San Francisco,CA,94127,US,+14157310375,,"Snacks,Counter Service,Dessert,Tea House,Coffee Shop"
zzw-222@5vg-7gb-ty9,sg:20c18de5b5a14247a4850050a8938ef9,,,Starbucks,SG_BRAND_f116acfe9147494063e58da666d1d57e,Starbucks,Restaurants and Other Eating Places,Snack and Nonalcoholic Beverage Bars,722515,37.741059,-122.387737,3801 3rd Street 112 Bayview Plaza,San Francisco,CA,94124,US,+14154710874,,"Snacks,Counter Service,Dessert,Tea House,Coffee Shop,Bakery"
224-222@5vg-7gs-47q,sg:1fc761fef5c94e609756370c535d1122,,,Starbucks,SG_BRAND_f116acfe9147494063e58da666d1d57e,Starbucks,Restaurants and Other Eating Places,Snack and Nonalcoholic Beverage Bars,722515,37.788639,-122.434668,2435 California St,San Francisco,CA,94115,US,+14155673978,"{ ""Mon"": [[""5:30"", ""20:00""]], ""Tue"": [[""5:30"", ""20:00""]], ""Wed"": [[""5:30"", ""20:00""]], ""Thu"": [[""5:30"", ""20:00""]], ""Fri"": [[""6:00"", ""20:00""]], ""Sat"": [[""6:00"", ""20:00""]], ""Sun"": [[""5:30"", ""20:00""]] }","Snacks,Counter Service,Dessert,Tea House,Coffee Shop,Bakery"
23g-222@5vg-7gw-wff,sg:729109771c224c60a0952c27aba63cff,,,Starbucks,SG_BRAND_f116acfe9147494063e58da666d1d57e,Starbucks,Restaurants and Other Eating Places,Snack and Nonalcoholic Beverage Bars,722515,37.789337,-122.406783,390 Stockton St,San Francisco,CA,94108,US,+14159891637,"{ ""Mon"": [[""4:30"", ""22:30""]], ""Tue"": [[""4:30"", ""22:30""]], ""Wed"": [[""4:30"", ""22:30""]], ""Thu"": [[""4:30"", ""22:30""]], ""Fri"": [[""4:30"", ""23:30""]], ""Sat"": [[""4:30"", ""23:30""]], ""Sun"": [[""4:30"", ""22:30""]] }","Snacks,Counter Service,Dessert,Tea House,Coffee Shop,Bakery"
23k-222@5vg-7gt-dqf,sg:443ed845deee4469990f2e938a04dcd3,zzz-222@5vg-7gt-dqf,sg:1d4a23e1694a4ec0a9ee1982324f59cf,Starbucks,SG_BRAND_f116acfe9147494063e58da666d1d57e,Starbucks,Restaurants and Other Eating Places,Snack and Nonalcoholic Beverage Bars,722515,37.794598,-122.40264,425 Battery St,San Francisco,CA,94111,US,+14154459030,"{ ""Mon"": [[""5:00"", ""18:00""]], ""Tue"": [[""5:00"", ""18:00""]], ""Wed"": [[""5:00"", ""18:00""]], ""Thu"": [[""5:00"", ""18:00""]], ""Fri"": [[""5:00"", ""18:30""]], ""Sat"": [[""5:30"", ""18:00""]], ""Sun"": [[""5:00"", ""18:00""]] }","Snacks,Counter Service,Dessert,Tea House,Coffee Shop,Bakery"
227-222@5vg-7gr-yd9,sg:e39bd41c7f6646f787b58205c220bec6,zzy-222@5vg-7gr-xbk,sg:802855f14cbf4c1ea9776a4ffc85039f,Starbucks,SG_BRAND_f116acfe9147494063e58da666d1d57e,Starbucks,Restaurants and Other Eating Places,Snack and Nonalcoholic Beverage Bars,722515,37.78623,-122.453194,3595 California St,San Francisco,CA,94118,US,+14153872249,,"Snacks,Counter Service,Dessert,Tea House,Coffee Shop,Bakery"
225-223@5vg-7h2-pjv,sg:f3a029e94ddb49368d695e2aa16cd7d2,,,Starbucks,SG_BRAND_f116acfe9147494063e58da666d1d57e,Starbucks,Restaurants and Other Eating Places,Snack and Nonalcoholic Beverage Bars,722515,37.771258,-122.389287,1375 3rd St,San Francisco,CA,94158,US,+14155354083,"{ ""Mon"": [[""4:30"", ""18:00""]], ""Tue"": [[""4:30"", ""18:00""]], ""Wed"": [[""4:30"", ""18:00""]], ""Thu"": [[""4:30"", ""18:00""]], ""Fri"": [[""6:30"", ""15:00""]], ""Sat"": [[""6:00"", ""14:00""]], ""Sun"": [[""4:30"", ""18:00""]] }","Snacks,Counter Service,Dessert,Tea House,Coffee Shop,Bakery"
22c-222@5vg-7gw-8d9,sg:70222420a843412a9d365140962a39bd,,,Starbucks,SG_BRAND_f116acfe9147494063e58da666d1d57e,Starbucks,Restaurants and Other Eating Places,Snack and Nonalcoholic Beverage Bars,722515,37.80529,-122.415092,499 Bay St,San Francisco,CA,94133,US,+14154091847,"{ ""Mon"": [[""4:30"", ""20:30""]], ""Tue"": [[""4:30"", ""20:30""]], ""Wed"": [[""4:30"", ""20:30""]], ""Thu"": [[""4:30"", ""20:30""]], ""Fri"": [[""4:30"", ""21:00""]], ""Sat"": [[""4:30"", ""21:00""]], ""Sun"": [[""4:30"", ""21:00""]] }","Snacks,Counter Service,Dessert,Tea House,Coffee Shop,Bakery"
22h-222@5vg-7gv-5mk,sg:e469918303ca4ff9830638a655665cba,,,Starbucks,SG_BRAND_f116acfe9147494063e58da666d1d57e,Starbucks,Restaurants and Other Eating Places,Snack and Nonalcoholic Beverage Bars,722515,37.786224,-122.405691,780 Market St,San Francisco,CA,94102,US,+14156774493,"{ ""Mon"": [[""5:00"", ""20:30""]], ""Tue"": [[""5:00"", ""20:30""]], ""Wed"": [[""5:00"", ""20:30""]], ""Thu"": [[""5:00"", ""20:30""]], ""Fri"": [[""6:00"", ""20:30""]], ""Sat"": [[""6:00"", ""20:30""]], ""Sun"": [[""5:00"", ""20:30""]] }","Snacks,Counter Service,Dessert,Tea House,Coffee Shop,Bakery"
232-222@5vg-7gs-swk,sg:52047401f5e24a0998ba27aee55bdc28,,,Boba Guys,SG_BRAND_3cb8a9183076df2c,Boba Guys,Restaurants and Other Eating Places,Snack and Nonalcoholic Beverage Bars,722515,37.777458,-122.437888,836 Divisadero St,San Francisco,CA,94117,US,,"{ ""Mon"": [[""11:00"", ""21:00""]], ""Tue"": [[""11:00"", ""21:00""]], ""Wed"": [[""11:00"", ""21:00""]], ""Thu"": [[""11:00"", ""21:00""]], ""Fri"": [[""12:00"", ""22:00""]], ""Sat"": [[""12:00"", ""22:00""]], ""Sun"": [[""12:00"", ""18:00""]] }","Bubble Tea Shop,Counter Service,Dessert,Snacks"
zzw-22g@5vg-834-x3q,sg:54036d68ee1b427abdaf3893b982f208,223-222@5vg-834-x3q,sg:3590837d0a844a89b01e5757ea7c5675,Peet's Coffee and Tea,SG_BRAND_8421bf6b31aaf51cc6dfa83a155940a3,Peet's Coffee and Tea,Restaurants and Other Eating Places,Snack and Nonalcoholic Beverage Bars,722515,37.733576,-122.489671,1509 Sloat Blvd,San Francisco,CA,94132,US,+14152138791,"{ ""Mon"": [[""5:30"", ""20:00""]], ""Tue"": [[""5:30"", ""20:00""]], ""Wed"": [[""5:30"", ""20:00""]], ""Thu"": [[""5:30"", ""20:00""]], ""Fri"": [[""5:30"", ""21:00""]], ""Sat"": [[""5:30"", ""20:00""]], ""Sun"": [[""6:30"", ""20:00""]] }","Snacks,Counter Service,Dessert,Tea House,Coffee Shop"
zzw-22c@5vg-7gt-d7q,sg:8af260e2cdb0496dbe45327e278368d4,,,Starbucks,SG_BRAND_f116acfe9147494063e58da666d1d57e,Starbucks,Restaurants and Other Eating Places,Snack and Nonalcoholic Beverage Bars,722515,37.793794,-122.397115,52 California St,San Francisco,CA,94111,US,+14153988630,"{ ""Mon"": [[""4:00"", ""17:00""]], ""Tue"": [[""4:00"", ""17:00""]], ""Wed"": [[""4:00"", ""17:00""]], ""Thu"": [[""4:00"", ""17:00""]], ""Fri"": [[""4:00"", ""17:30""]], ""Sat"": [], ""Sun"": [] }","Snacks,Counter Service,Dessert,Tea House,Coffee Shop,Bakery"
22z-222@5vg-7gv-4vz,sg:1179d47db9644721bc56f9b187899d1b,,,Starbucks,SG_BRAND_f116acfe9147494063e58da666d1d57e,Starbucks,Restaurants and Other Eating Places,Snack and Nonalcoholic Beverage Bars,722515,37.787749,-122.40111,74 New Montgomery St Ste 100,San Francisco,CA,94105,US,+14152840651,"{ ""Mon"": [[""5:00"", ""19:00""]], ""Tue"": [[""5:00"", ""19:00""]], ""Wed"": [[""5:00"", ""19:00""]], ""Thu"": [[""5:00"", ""18:00""]], ""Fri"": [[""5:30"", ""18:00""]], ""Sat"": [[""5:30"", ""18:00""]], ""Sun"": [[""5:00"", ""19:00""]] }","Snacks,Counter Service,Dessert,Tea House,Coffee Shop,Bakery"
22z-222@5vg-7gt-dqf,sg:b84c546451f448c286471c2d9123593d,zzz-222@5vg-7gt-dqf,sg:1d4a23e1694a4ec0a9ee1982324f59cf,Starbucks,SG_BRAND_f116acfe9147494063e58da666d1d57e,Starbucks,Restaurants and Other Eating Places,Snack and Nonalcoholic Beverage Bars,722515,37.79464,-122.402729,565 Clay St,San Francisco,CA,94111,US,+14158340578,"{ ""Mon"": [[""3:30"", ""19:30""]], ""Tue"": [[""3:30"", ""19:30""]], ""Wed"": [[""3:30"", ""19:30""]], ""Thu"": [[""3:30"", ""19:30""]], ""Fri"": [[""6:00"", ""19:30""]], ""Sat"": [[""6:00"", ""19:30""]], ""Sun"": [[""3:30"", ""19:30""]] }","Snacks,Counter Service,Dessert,Tea House,Coffee Shop,Bakery"
226-225@5vg-7gt-7h5,sg:d6e691ab874346459ed3af54d8f7b78b,,,Peet's Coffee and Tea,SG_BRAND_8421bf6b31aaf51cc6dfa83a155940a3,Peet's Coffee and Tea,Restaurants and Other Eating Places,Snack and Nonalcoholic Beverage Bars,722515,37.788425,-122.395597,405 Howard St,San Francisco,CA,94105,US,+14155938920,"{ ""Mon"": [[""5:00"", ""19:00""]], ""Tue"": [[""5:00"", ""19:00""]], ""Wed"": [[""5:00"", ""19:00""]], ""Thu"": [[""5:00"", ""19:00""]], ""Fri"": [[""5:00"", ""19:00""]], ""Sat"": [[""8:00"", ""14:00""]], ""Sun"": [] }","Snacks,Counter Service,Dessert,Tea House,Coffee Shop"
22g-222@5vg-7gw-d5f,sg:af6fbc13e4ee4449a0802a9fd5ed0988,,,Starbucks,SG_BRAND_f116acfe9147494063e58da666d1d57e,Starbucks,Restaurants and Other Eating Places,Snack and Nonalcoholic Beverage Bars,722515,37.788573,-122.422253,1401 Van Ness Ave,San Francisco,CA,94109,US,+14154747095,"{ ""Mon"": [[""4:00"", ""20:30""]], ""Tue"": [[""4:00"", ""20:30""]], ""Wed"": [[""4:00"", ""20:30""]], ""Thu"": [[""4:00"", ""20:30""]], ""Fri"": [[""5:00"", ""21:00""]], ""Sat"": [[""5:00"", ""20:30""]], ""Sun"": [[""4:30"", ""20:30""]] }","Snacks,Counter Service,Dessert,Tea House,Coffee Shop,Bakery"
22b-222@5vg-7mw-2rk,sg:13e339c34a3647da86d10b5205ca4c1f,24r-222@5vg-7mw-2rk,sg:09b8cb5b850638b1beb5489892380de6,Starbucks,SG_BRAND_f116acfe9147494063e58da666d1d57e,Starbucks,Restaurants and Other Eating Places,Snack and Nonalcoholic Beverage Bars,722515,37.804477,-122.433877,3735 Buchanan St,San Francisco,CA,94123,US,+14153462852,"{ ""Mon"": [[""5:00"", ""17:30""]], ""Tue"": [[""5:00"", ""17:30""]], ""Wed"": [[""5:00"", ""17:30""]], ""Thu"": [[""5:00"", ""18:30""]], ""Fri"": [[""5:00"", ""19:00""]], ""Sat"": [[""5:00"", ""18:30""]], ""Sun"": [[""5:00"", ""17:30""]] }","Snacks,Counter Service,Dessert,Tea House,Coffee Shop,Bakery"
22c-222@5vg-832-qmk,sg:29ec5d6c4e8f4aed8949a08b5e94300e,,,Starbucks,SG_BRAND_f116acfe9147494063e58da666d1d57e,Starbucks,Restaurants and Other Eating Places,Snack and Nonalcoholic Beverage Bars,722515,37.76424,-122.466043,744 Irving St,San Francisco,CA,94122,US,+14156648340,,"Snacks,Counter Service,Dessert,Tea House,Coffee Shop,Bakery"
229-223@5vg-7gr-bhq,sg:fbae48db5dca4f9895db6ee5108d46f9,224-225@5vg-7gr-bhq,sg:177b8038358b4602b995a11aaed16310,Peet's Coffee and Tea,SG_BRAND_8421bf6b31aaf51cc6dfa83a155940a3,Peet's Coffee and Tea,Restaurants and Other Eating Places,Snack and Nonalcoholic Beverage Bars,722515,37.770773,-122.407463,555 9th St Ste B5,San Francisco,CA,94103,US,+14155930430,"{ ""Mon"": [[""5:30"", ""20:00""]], ""Tue"": [[""5:30"", ""20:00""]], ""Wed"": [[""5:30"", ""20:00""]], ""Thu"": [[""5:30"", ""20:00""]], ""Fri"": [[""5:30"", ""21:00""]], ""Sat"": [[""7:00"", ""20:00""]], ""Sun"": [[""8:00"", ""20:00""]] }","Snacks,Counter Service,Dessert,Tea House,Coffee Shop"
224-223@5vg-7gr-f9f,sg:5cf6138fd25b450296fbdb9dc569aaf0,222-223@5vg-7gr-f9f,sg:4e95b652339a48ada54faf3f3827bafa,Peet's Coffee and Tea,SG_BRAND_8421bf6b31aaf51cc6dfa83a155940a3,Peet's Coffee and Tea,Restaurants and Other Eating Places,Snack and Nonalcoholic Beverage Bars,722515,37.766506,-122.409096,2300 16th St Ste 240,San Francisco,CA,94103,US,+14155656713,,"Snacks,Counter Service,Dessert,Tea House,Coffee Shop"
zzw-225@5vg-7gr-9fz,sg:cbbc8cd2aae54b8cbf131c1b517ee9cd,zzw-228@5vg-7gr-9fz,sg:f30ee715dddc47bdb22987f6684bf826,Starbucks,SG_BRAND_f116acfe9147494063e58da666d1d57e,Starbucks,Restaurants and Other Eating Places,Snack and Nonalcoholic Beverage Bars,722515,37.766887,-122.409622,2300 16th St Unit 203,San Francisco,CA,94103,US,,"{ ""Mon"": [[""5:30"", ""19:00""]], ""Tue"": [[""5:30"", ""19:00""]], ""Wed"": [[""5:30"", ""19:00""]], ""Thu"": [[""5:30"", ""19:00""]], ""Fri"": [[""5:30"", ""19:00""]], ""Sat"": [[""5:30"", ""19:00""]], ""Sun"": [[""5:30"", ""19:00""]] }","Snacks,Counter Service,Dessert,Tea House,Coffee Shop,Bakery"
zzy-223@5vg-7gt-qs5,sg:e01b74c797af4911b26bb098db981f7d,,,Starbucks,SG_BRAND_f116acfe9147494063e58da666d1d57e,Starbucks,Restaurants and Other Eating Places,Snack and Nonalcoholic Beverage Bars,722515,37.79673,-122.394852,Pier 1 The Embarcadero,San Francisco,CA,94111,US,+14159563953,"{ ""Mon"": [[""5:00"", ""21:00""]], ""Tue"": [[""5:00"", ""21:00""]], ""Wed"": [[""5:00"", ""21:00""]], ""Thu"": [[""5:00"", ""21:30""]], ""Fri"": [[""5:30"", ""22:00""]], ""Sat"": [[""5:30"", ""21:30""]], ""Sun"": [[""5:00"", ""21:00""]] }","Snacks,Counter Service,Dessert,Tea House,Coffee Shop,Bakery"
zzw-223@5vg-7gw-8qf,sg:5b9c517aedaa46328af254fbe86ec9be,,,Krispy Kreme Doughnuts,SG_BRAND_c00d0bf3a8d7b6744a18e2554adf5921,Krispy Kreme Doughnuts,Restaurants and Other Eating Places,Snack and Nonalcoholic Beverage Bars,722515,37.80776,-122.418499,353 Jefferson St,San Francisco,CA,94133,US,+14157751123,"{ ""Mon"": [[""8:00"", ""22:00""]], ""Tue"": [[""8:00"", ""22:00""]], ""Wed"": [[""8:00"", ""22:00""]], ""Thu"": [[""8:00"", ""22:00""]], ""Fri"": [[""8:00"", ""24:00""]], ""Sat"": [[""8:00"", ""24:00""]], ""Sun"": [[""8:00"", ""24:00""]] }","Counter Service,Lunch,Breakfast,Donut Shop,Coffee Shop,Dinner"
22y-222@5vg-7gt-swk,sg:83ab66460b324fa6940470fb6e0df0a5,,,Starbucks,SG_BRAND_f116acfe9147494063e58da666d1d57e,Starbucks,Restaurants and Other Eating Places,Snack and Nonalcoholic Beverage Bars,722515,37.791317,-122.392264,201 Spear St Ste 100,San Francisco,CA,94105,US,+14159745077,"{ ""Mon"": [[""4:00"", ""19:00""]], ""Tue"": [[""4:00"", ""19:00""]], ""Wed"": [[""4:00"", ""19:00""]], ""Thu"": [[""4:00"", ""19:00""]], ""Fri"": [[""4:00"", ""19:00""]], ""Sat"": [[""5:00"", ""16:30""]], ""Sun"": [[""5:30"", ""16:30""]] }","Snacks,Counter Service,Dessert,Tea House,Coffee Shop,Bakery"
22f-222@5vg-7gt-5xq,sg:0027f48e2573415d8e643b83210e7510,,,Peet's Coffee and Tea,SG_BRAND_8421bf6b31aaf51cc6dfa83a155940a3,Peet's Coffee and Tea,Restaurants and Other Eating Places,Snack and Nonalcoholic Beverage Bars,722515,37.788195,-122.399275,595 Market St Ste 143,San Francisco,CA,94105,US,,"{ ""Mon"": [[""5:30"", ""19:00""]], ""Tue"": [[""5:30"", ""19:00""]], ""Wed"": [[""5:30"", ""19:00""]], ""Thu"": [[""5:30"", ""19:00""]], ""Fri"": [[""5:30"", ""19:00""]], ""Sat"": [], ""Sun"": [] }","Snacks,Counter Service,Dessert,Tea House,Coffee Shop"
zzw-223@5vg-7gt-649,sg:26ac43336232493e9a6522ae4ee051f8,,,Starbucks,SG_BRAND_f116acfe9147494063e58da666d1d57e,Starbucks,Restaurants and Other Eating Places,Snack and Nonalcoholic Beverage Bars,722515,37.789558,-122.397612,100 1st St,San Francisco,CA,94105,US,,,"Snacks,Counter Service,Dessert,Tea House,Coffee Shop,Bakery"
zzw-228@5vg-7gs-4qf,sg:a0fd0dd6b68b49a5907bf7c704828d44,,,Starbucks,SG_BRAND_f116acfe9147494063e58da666d1d57e,Starbucks,Restaurants and Other Eating Places,Snack and Nonalcoholic Beverage Bars,722515,37.783417,-122.432924,1501 Fillmore Street The Fillmore Center,San Francisco,CA,94115,US,+14154417969,"{ ""Mon"": [[""5:00"", ""19:30""]], ""Tue"": [[""5:00"", ""19:30""]], ""Wed"": [[""5:00"", ""19:30""]], ""Thu"": [[""5:00"", ""21:00""]], ""Fri"": [[""5:00"", ""22:00""]], ""Sat"": [[""5:30"", ""19:30""]], ""Sun"": [[""5:00"", ""19:30""]] }","Snacks,Counter Service,Dessert,Tea House,Coffee Shop,Bakery"
22c-222@5vg-7gw-v4v,sg:c71af03706394a55a06746e424dc3218,,,Starbucks,SG_BRAND_f116acfe9147494063e58da666d1d57e,Starbucks,Restaurants and Other Eating Places,Snack and Nonalcoholic Beverage Bars,722515,37.787314,-122.410706,442 Geary St,San Francisco,CA,94102,US,+14159229086,"{ ""Mon"": [[""5:00"", ""21:00""]], ""Tue"": [[""5:00"", ""21:00""]], ""Wed"": [[""5:00"", ""21:00""]], ""Thu"": [[""5:00"", ""21:00""]], ""Fri"": [[""5:00"", ""21:00""]], ""Sat"": [[""5:00"", ""21:00""]], ""Sun"": [[""5:00"", ""20:00""]] }","Snacks,Counter Service,Dessert,Tea House,Coffee Shop,Bakery"
zzy-22g@5vg-7gv-4gk,sg:aa92ac285fcf40f991ca46455db6f664,222-225@5vg-7gv-3qz,sg:ff30c152e29e420c800b91548997de61,Starbucks,SG_BRAND_f116acfe9147494063e58da666d1d57e,Starbucks,Restaurants and Other Eating Places,Snack and Nonalcoholic Beverage Bars,722515,37.784078,-122.407524,865 Market Street C 26a San Francisco Centre,San Francisco,CA,94103,US,+14153480940,"{ ""Mon"": [[""4:30"", ""21:00""]], ""Tue"": [[""4:30"", ""21:00""]], ""Wed"": [[""4:30"", ""21:00""]], ""Thu"": [[""4:30"", ""21:00""]], ""Fri"": [[""4:30"", ""21:00""]], ""Sat"": [[""6:00"", ""21:00""]], ""Sun"": [[""8:00"", ""19:00""]] }","Snacks,Counter Service,Dessert,Tea House,Coffee Shop,Bakery"
23n-222@5vg-7gz-49z,sg:615cc7fe477f4f23a7b7a9c13c52b9f9,,,Starbucks,SG_BRAND_f116acfe9147494063e58da666d1d57e,Starbucks,Restaurants and Other Eating Places,Snack and Nonalcoholic Beverage Bars,722515,37.761035,-122.43463,4094 18th St,San Francisco,CA,94114,US,+14156266263,,"Snacks,Counter Service,Dessert,Tea House,Coffee Shop,Bakery"
23c-222@5vg-7gt-5xq,sg:f95b3c81546a4852886a88508eff4031,,,Peet's Coffee and Tea,SG_BRAND_8421bf6b31aaf51cc6dfa83a155940a3,Peet's Coffee and Tea,Restaurants and Other Eating Places,Snack and Nonalcoholic Beverage Bars,722515,37.788235,-122.399329,595 Mission St,San Francisco,CA,94105,US,+14154954323,"{ ""Mon"": [[""5:00"", ""18:30""]], ""Tue"": [[""5:00"", ""18:30""]], ""Wed"": [[""5:00"", ""18:30""]], ""Thu"": [[""5:00"", ""18:30""]], ""Fri"": [[""5:00"", ""18:30""]], ""Sat"": [], ""Sun"": [] }","Snacks,Counter Service,Dessert,Tea House,Coffee Shop"
222-228@5vg-7gr-rx5,sg:70f1e2e4574c4972a520e2ebc3ed9526,222-222@5vg-7gr-rx5,sg:e70d7386bf6141e8b4029f553d247284,Starbucks,SG_BRAND_f116acfe9147494063e58da666d1d57e,Starbucks,Restaurants and Other Eating Places,Snack and Nonalcoholic Beverage Bars,722515,37.782076,-122.44708,2675 Geary Blvd,San Francisco,CA,94118,US,,,"Snacks,Counter Service,Dessert,Tea House,Coffee Shop,Bakery"
242-223@5vg-7h2-bp9,sg:6ef8d58fa50a4b6ca0292e51bc68dcd0,,,Peet's Coffee and Tea,SG_BRAND_8421bf6b31aaf51cc6dfa83a155940a3,Peet's Coffee and Tea,Restaurants and Other Eating Places,Snack and Nonalcoholic Beverage Bars,722515,37.771339,-122.405182,625 8th St,San Francisco,CA,94103,US,+14154292626,,"Snacks,Counter Service,Dessert,Tea House,Coffee Shop"
22h-222@5vg-7gq-7bk,sg:0a574e71913d4a28827bd253830bb9bb,,,Peet's Coffee and Tea,SG_BRAND_8421bf6b31aaf51cc6dfa83a155940a3,Peet's Coffee and Tea,Restaurants and Other Eating Places,Snack and Nonalcoholic Beverage Bars,722515,37.775277,-122.416198,1400 Mission St Ste 130,San Francisco,CA,94103,US,+14156104850,"{ ""Mon"": [[""5:30"", ""20:00""]], ""Tue"": [[""5:30"", ""20:00""]], ""Wed"": [[""5:30"", ""20:00""]], ""Thu"": [[""5:30"", ""20:00""]], ""Fri"": [[""5:30"", ""20:00""]], ""Sat"": [[""6:00"", ""19:00""]], ""Sun"": [[""6:00"", ""19:00""]] }","Snacks,Counter Service,Dessert,Tea House,Coffee Shop"
225-222@5vg-7gt-tgk,sg:16b4e8ba6be946ee9a9b770f08d69834,,,Starbucks,SG_BRAND_f116acfe9147494063e58da666d1d57e,Starbucks,Restaurants and Other Eating Places,Snack and Nonalcoholic Beverage Bars,722515,37.791478,-122.395122,201 Mission St # 100,San Francisco,CA,94105,US,+14155431510,"{ ""Mon"": [[""5:00"", ""20:00""]], ""Tue"": [[""5:00"", ""20:00""]], ""Wed"": [[""5:00"", ""20:00""]], ""Thu"": [[""5:00"", ""20:00""]], ""Fri"": [[""5:00"", ""19:30""]], ""Sat"": [[""8:00"", ""17:00""]], ""Sun"": [] }","Snacks,Counter Service,Dessert,Tea House,Coffee Shop,Bakery"
23y-222@5vg-7gt-fvf,sg:0cdb6d66ed504fc79c2519cf4005621c,,,Starbucks,SG_BRAND_f116acfe9147494063e58da666d1d57e,Starbucks,Restaurants and Other Eating Places,Snack and Nonalcoholic Beverage Bars,722515,37.790698,-122.403856,264 Kearny St,San Francisco,CA,94108,US,+14157881363,,"Snacks,Counter Service,Dessert,Tea House,Coffee Shop,Bakery"
zzy-224@5vg-7yh-4y9,sg:6af820460f0e45488a6b88cc71363f98,zzy-223@5vg-7yp-tqf,sg:54f741a01e6e4ec48ca5eceb0b20b031,Starbucks,SG_BRAND_f116acfe9147494063e58da666d1d57e,Starbucks,Restaurants and Other Eating Places,Snack and Nonalcoholic Beverage Bars,722515,37.618109,-122.386923,Sfo Terminal 3 United Gate73,San Francisco,CA,94128,US,+16506837129,,"Snacks,Counter Service,Dessert,Tea House,Coffee Shop,Bakery"
225-222@5vg-7gt-wzf,sg:4d080bfb6c7740a2a51c7961ace65f66,,,Peet's Coffee and Tea,SG_BRAND_8421bf6b31aaf51cc6dfa83a155940a3,Peet's Coffee and Tea,Restaurants and Other Eating Places,Snack and Nonalcoholic Beverage Bars,722515,37.78108,-122.400235,370 4th St,San Francisco,CA,94107,US,+14152303091,"{ ""Mon"": [[""5:30"", ""19:00""]], ""Tue"": [[""5:30"", ""19:00""]], ""Wed"": [[""5:30"", ""19:00""]], ""Thu"": [[""5:30"", ""19:00""]], ""Fri"": [[""5:30"", ""19:00""]], ""Sat"": [[""6:30"", ""18:00""]], ""Sun"": [[""6:30"", ""18:00""]] }","Snacks,Counter Service,Dessert,Tea House,Coffee Shop"
22b-222@5vg-7gt-g49,sg:03667f0a9bc64e65b10a471b885e632f,,,Boba Guys,SG_BRAND_3cb8a9183076df2c,Boba Guys,Restaurants and Other Eating Places,Snack and Nonalcoholic Beverage Bars,722515,37.789987,-122.407215,429 Stockton St,San Francisco,CA,94108,US,,"{ ""Mon"": [[""8:00"", ""21:00""]], ""Tue"": [[""8:00"", ""21:00""]], ""Wed"": [[""8:00"", ""21:00""]], ""Thu"": [[""8:00"", ""21:00""]], ""Fri"": [[""8:00"", ""22:00""]], ""Sat"": [[""12:00"", ""22:00""]], ""Sun"": [[""12:00"", ""18:00""]] }","Bubble Tea Shop,Counter Service,Dessert,Snacks"
zzw-22b@5vg-7gv-54v,sg:1945c08691a14439ae0417c54d42a776,,,Starbucks,SG_BRAND_f116acfe9147494063e58da666d1d57e,Starbucks,Restaurants and Other Eating Places,Snack and Nonalcoholic Beverage Bars,722515,37.784795,-122.399938,201 3rd St. Convention Plaza Ground Floor,San Francisco,CA,94103,US,+14156440072,"{ ""Mon"": [[""5:00"", ""18:00""]], ""Tue"": [[""5:00"", ""18:00""]], ""Wed"": [[""5:00"", ""18:00""]], ""Thu"": [[""5:00"", ""18:30""]], ""Fri"": [[""5:00"", ""18:30""]], ""Sat"": [[""6:00"", ""18:00""]], ""Sun"": [[""5:00"", ""18:00""]] }","Snacks,Counter Service,Dessert,Tea House,Coffee Shop,Bakery"
22y-222@5vg-7gt-fpv,sg:af08edbce5e640038eefca60f63c16f4,22j-222@5vg-7gt-fpv,sg:75c904e9ec444203bc7fc32facae075e,Starbucks,SG_BRAND_f116acfe9147494063e58da666d1d57e,Starbucks,Restaurants and Other Eating Places,Snack and Nonalcoholic Beverage Bars,722515,37.790417,-122.405796,359 Grant Ave,San Francisco,CA,94108,US,+14153922365,"{ ""Mon"": [[""5:30"", ""21:00""]], ""Tue"": [[""5:30"", ""21:00""]], ""Wed"": [[""5:30"", ""21:00""]], ""Thu"": [[""5:30"", ""21:00""]], ""Fri"": [[""5:30"", ""21:00""]], ""Sat"": [[""5:30"", ""21:30""]], ""Sun"": [[""5:30"", ""20:30""]] }","Snacks,Counter Service,Dessert,Tea House,Coffee Shop,Bakery"
zzw-223@5vg-7gt-bx5,sg:ed91808260ca465ba7c29d53146a90cb,227-226@5vg-7gt-f9f,sg:e5d9175ec86d417f82d6e661cf4519de,Starbucks,SG_BRAND_f116acfe9147494063e58da666d1d57e,Starbucks,Restaurants and Other Eating Places,Snack and Nonalcoholic Beverage Bars,722515,37.79102,-122.401029,225 Bush St,San Francisco,CA,94104,US,,,"Snacks,Counter Service,Dessert,Tea House,Coffee Shop,Bakery"
22k-222@5vg-7gy-3nq,sg:279efb999f594963a1feeea02314371d,,,Starbucks,SG_BRAND_f116acfe9147494063e58da666d1d57e,Starbucks,Restaurants and Other Eating Places,Snack and Nonalcoholic Beverage Bars,722515,37.751269,-122.431689,3995 24th St,San Francisco,CA,94114,US,+14158261118,"{ ""Mon"": [[""5:00"", ""22:00""]], ""Tue"": [[""5:00"", ""22:00""]], ""Wed"": [[""5:00"", ""22:00""]], ""Thu"": [[""5:00"", ""22:00""]], ""Fri"": [[""5:00"", ""22:00""]], ""Sat"": [[""5:00"", ""21:30""]], ""Sun"": [[""5:00"", ""22:00""]] }","Snacks,Counter Service,Dessert,Tea House,Coffee Shop,Bakery"
222-224@5vg-7gr-6kz,sg:ee195a6f8a684651923a478c0568ed3d,222-226@5vg-7gr-6kz,sg:8dc4daaad7d948b4bc961e41cce3c83d,Starbucks,SG_BRAND_f116acfe9147494063e58da666d1d57e,Starbucks,Restaurants and Other Eating Places,Snack and Nonalcoholic Beverage Bars,722515,37.769058,-122.427752,2020 Market St,San Francisco,CA,94114,US,,"{ ""Mon"": [[""5:30"", ""19:30""]], ""Tue"": [[""5:30"", ""19:30""]], ""Wed"": [[""5:30"", ""19:30""]], ""Thu"": [[""5:30"", ""19:30""]], ""Fri"": [[""5:30"", ""19:30""]], ""Sat"": [[""5:30"", ""19:30""]], ""Sun"": [[""5:30"", ""19:30""]] }","Snacks,Counter Service,Dessert,Tea House,Coffee Shop,Bakery"
229-222@5vg-7mw-sbk,sg:5cfd07f613ba48ac8d35ac7c01f9b824,,,Peet's Coffee and Tea,SG_BRAND_8421bf6b31aaf51cc6dfa83a155940a3,Peet's Coffee and Tea,Restaurants and Other Eating Places,Snack and Nonalcoholic Beverage Bars,722515,37.80086,-122.437894,2080 Chestnut St,San Francisco,CA,94123,US,+14156352393,"{ ""Mon"": [[""5:00"", ""21:00""]], ""Tue"": [[""5:00"", ""21:00""]], ""Wed"": [[""5:00"", ""21:00""]], ""Thu"": [[""5:00"", ""21:00""]], ""Fri"": [[""5:00"", ""21:00""]], ""Sat"": [[""5:30"", ""19:30""]], ""Sun"": [[""5:30"", ""20:00""]] }","Snacks,Counter Service,Dessert,Tea House,Coffee Shop"
237-222@5vg-7gz-3bk,sg:5aba23d2e72a477ca961f4d6bf14f5b8,,,Peet's Coffee and Tea,SG_BRAND_8421bf6b31aaf51cc6dfa83a155940a3,Peet's Coffee and Tea,Restaurants and Other Eating Places,Snack and Nonalcoholic Beverage Bars,722515,37.764818,-122.431995,2257 Market St,San Francisco,CA,94114,US,+14156266416,,"Snacks,Counter Service,Dessert,Tea House,Coffee Shop"
222-222@5vg-7h2-54v,sg:9da95d0aeef44eacbef9650a9df3f9bd,,,Boba Guys,SG_BRAND_3cb8a9183076df2c,Boba Guys,Restaurants and Other Eating Places,Snack and Nonalcoholic Beverage Bars,722515,37.766681,-122.397311,1002 16th St,San Francisco,CA,94107,US,,"{ ""Mon"": [[""9:00"", ""19:00""]], ""Tue"": [[""9:00"", ""19:00""]], ""Wed"": [[""9:00"", ""19:00""]], ""Thu"": [[""9:00"", ""19:00""]], ""Fri"": [[""9:00"", ""19:00""]], ""Sat"": [[""12:00"", ""20:00""]], ""Sun"": [[""12:00"", ""18:00""]] }","Bubble Tea Shop,Counter Service,Dessert,Snacks"
228-222@5vg-7gr-9pv,sg:4749038ba429440aa32001458c027303,228-223@5vg-7gr-9pv,sg:f406d26fc9c84198a392ad46457fb128,Starbucks,SG_BRAND_f116acfe9147494063e58da666d1d57e,Starbucks,Restaurants and Other Eating Places,Snack and Nonalcoholic Beverage Bars,722515,37.770025,-122.41606,1690 Folsom St,San Francisco,CA,94103,US,,,"Snacks,Counter Service,Dessert,Tea House,Coffee Shop,Bakery"
zzw-22g@5vg-7gv-3bk,sg:7a4c5ae927834ef38548dbec1a047221,,,Starbucks,SG_BRAND_f116acfe9147494063e58da666d1d57e,Starbucks,Restaurants and Other Eating Places,Snack and Nonalcoholic Beverage Bars,722515,37.78419,-122.404197,120 4th St,San Francisco,CA,94103,US,+14152840579,"{ ""Mon"": [[""4:00"", ""20:00""]], ""Tue"": [[""4:00"", ""20:00""]], ""Wed"": [[""4:00"", ""20:00""]], ""Thu"": [[""4:00"", ""20:00""]], ""Fri"": [[""5:00"", ""19:30""]], ""Sat"": [[""5:00"", ""19:00""]], ""Sun"": [[""4:00"", ""20:00""]] }","Snacks,Counter Service,Dessert,Tea House,Coffee Shop,Bakery"
zzw-223@5vg-7gr-575,sg:3f8a9ce593124901b045f93db6968667,,,Boba Guys,SG_BRAND_3cb8a9183076df2c,Boba Guys,Restaurants and Other Eating Places,Snack and Nonalcoholic Beverage Bars,722515,37.772766,-122.423468,8 Octavia St Unit 308,San Francisco,CA,94102,US,,,"Bubble Tea Shop,Counter Service,Dessert,Snacks"
22r-222@5vg-7gw-w8v,sg:176f5c32e04d4dc781242ae3e25cb902,,,Starbucks,SG_BRAND_f116acfe9147494063e58da666d1d57e,Starbucks,Restaurants and Other Eating Places,Snack and Nonalcoholic Beverage Bars,722515,37.789154,-122.40842,462 Powell St,San Francisco,CA,94102,US,+14159562321,"{ ""Mon"": [[""4:30"", ""22:30""]], ""Tue"": [[""4:30"", ""22:30""]], ""Wed"": [[""4:30"", ""22:30""]], ""Thu"": [[""4:30"", ""22:30""]], ""Fri"": [[""4:30"", ""23:00""]], ""Sat"": [[""5:30"", ""11:00""]], ""Sun"": [[""5:00"", ""22:00""]] }","Snacks,Counter Service,Dessert,Tea House,Coffee Shop,Bakery"
227-222@5vg-7gw-gc5,sg:9d89f4ed31cb4a4aaa357907d4acae89,,,Starbucks,SG_BRAND_f116acfe9147494063e58da666d1d57e,Starbucks,Restaurants and Other Eating Places,Snack and Nonalcoholic Beverage Bars,722515,37.790261,-122.422032,1560 Van Ness Ave,San Francisco,CA,94109,US,+14157490365,,"Snacks,Counter Service,Dessert,Tea House,Coffee Shop,Bakery"
225-222@5vg-832-xwk,sg:f35e473da2914c99bb178bc4d48e84f7,,,Starbucks,SG_BRAND_f116acfe9147494063e58da666d1d57e,Starbucks,Restaurants and Other Eating Places,Snack and Nonalcoholic Beverage Bars,722515,37.763777,-122.477448,1800 Irving St,San Francisco,CA,94122,US,+14152427970,,"Snacks,Counter Service,Dessert,Tea House,Coffee Shop,Bakery"
22z-223@5vg-7gy-t5f,sg:e85e6d65c67946e3acfdf0cfd9cc8236,,,Peet's Coffee and Tea,SG_BRAND_8421bf6b31aaf51cc6dfa83a155940a3,Peet's Coffee and Tea,Restaurants and Other Eating Places,Snack and Nonalcoholic Beverage Bars,722515,37.765455,-122.450051,919 Cole St,San Francisco,CA,94117,US,+14152131991,"{ ""Mon"": [[""5:30"", ""20:00""]], ""Tue"": [[""5:30"", ""20:00""]], ""Wed"": [[""5:30"", ""20:00""]], ""Thu"": [[""5:30"", ""20:00""]], ""Fri"": [[""5:30"", ""20:00""]], ""Sat"": [[""5:30"", ""20:00""]], ""Sun"": [[""6:00"", ""20:00""]] }","Snacks,Counter Service,Dessert,Tea House,Coffee Shop"
zzw-226@5vg-7gv-4qf,sg:1fe9699621fd44bbb26868d6f0bc7bbd,,,Peet's Coffee and Tea,SG_BRAND_8421bf6b31aaf51cc6dfa83a155940a3,Peet's Coffee and Tea,Restaurants and Other Eating Places,Snack and Nonalcoholic Beverage Bars,722515,37.786504,-122.402036,692 Mission St,San Francisco,CA,94105,US,+14155938945,"{ ""Mon"": [[""5:30"", ""19:00""]], ""Tue"": [[""5:30"", ""19:00""]], ""Wed"": [[""5:30"", ""19:00""]], ""Thu"": [[""5:30"", ""19:00""]], ""Fri"": [[""5:30"", ""19:00""]], ""Sat"": [[""5:30"", ""19:00""]], ""Sun"": [[""5:30"", ""19:00""]] }","Snacks,Counter Service,Dessert,Tea House,Coffee Shop"
222-223@5vg-7gt-7nq,sg:5721fb00c00044d4b6b915e516f814bc,,,Starbucks,SG_BRAND_f116acfe9147494063e58da666d1d57e,Starbucks,Restaurants and Other Eating Places,Snack and Nonalcoholic Beverage Bars,722515,37.788395,-122.393642,299 Fremont St,San Francisco,CA,94105,US,+14157778678,,"Snacks,Counter Service,Dessert,Tea House,Coffee Shop,Bakery"
233-222@5vg-7mw-q4v,sg:f2477ba6d9064c04a1b9efbb1386b990,,,Starbucks,SG_BRAND_f116acfe9147494063e58da666d1d57e,Starbucks,Restaurants and Other Eating Places,Snack and Nonalcoholic Beverage Bars,722515,37.800693,-122.438552,2132 Chestnut St,San Francisco,CA,94123,US,+14156736781,,"Snacks,Counter Service,Dessert,Tea House,Coffee Shop,Bakery"
22g-223@5vg-833-xbk,sg:a9aecc8ae36a46ed9cff989ab8f4330c,,,Starbucks,SG_BRAND_f116acfe9147494063e58da666d1d57e,Starbucks,Restaurants and Other Eating Places,Snack and Nonalcoholic Beverage Bars,722515,37.780098,-122.478062,5455 Geary Blvd,San Francisco,CA,94121,US,+14153868813,,"Snacks,Counter Service,Dessert,Tea House,Coffee Shop,Bakery"
